CCSDS_OMM_VERS,COMMENT,CREATION_DATE,ORIGINATOR,OBJECT_NAME,OBJECT_ID,CENTER_NAME,REF_FRAME,TIME_SYSTEM,MEAN_ELEMENT_THEORY,EPOCH,MEAN_MOTION,ECCENTRICITY,INCLINATION,RA_OF_ASC_NODE,ARG_OF_PERICENTER,MEAN_ANOMALY,EPHEMERIS_TYPE,CLASSIFICATION_TYPE,NORAD_CAT_ID,ELEMENT_SET_NO,REV_AT_EPOCH,BSTAR,MEAN_MOTION_DOT,MEAN_MOTION_DDOT,SEMIMAJOR_AXIS,PERIOD,APOAPSIS,PERIAPSIS,OBJECT_TYPE,RCS_SIZE,COUNTRY_CODE,LAUNCH_DATE,SITE,DECAY_DATE,FILE,GP_ID,TLE_LINE0,TLE_LINE1,TLE_LINE2,norad_id
3.0,GENERATED VIA SPACE-TRACK.ORG API,2026-05-25T17:37:17,18 SPCS,COSMOS 2584(GLONASS),2025-042A,EARTH,TEME,UTC,SGP4,2026-05-25 03:31:09.321888+00:00,2.13103804,0.00060252,65.0720,73.5848,231.9508,127.9858,0,U,63130,999,955,0.00000000000000,-0.00000041,0.0000000000000,25507.880,675.727,19145.114,19114.376,PAYLOAD,LARGE,CIS,2025-03-02,PKMTR,,5214505,324979224,0 COSMOS 2584(GLONASS),1 63130U 25042A   26145.14663567 -.00000041  00000-0  00000-0 0  9998,2 63130  65.0720  73.5848 0006025 231.9508 127.9858  2.13103804  9552,63130
3.0,GENERATED VIA SPACE-TRACK.ORG API,2026-05-27T10:30:52,18 SPCS,COSMOS 2584(GLONASS),2025-042A,EARTH,TEME,UTC,SGP4,2026-05-27 00:34:04.269792+00:00,2.13103852,0.00059671,65.0730,73.5210,231.2903,128.6445,0,U,63130,999,959,0.00000000000000,-0.00000058,0.0000000000000,25507.877,675.727,19144.962,19114.521,PAYLOAD,LARGE,CIS,2025-03-02,PKMTR,,5215548,325195040,0 COSMOS 2584(GLONASS),1 63130U 25042A   26147.02366053 -.00000058  00000-0  00000-0 0  9995,2 63130  65.0730  73.5210 0005967 231.2903 128.6445  2.13103852  9599,63130
3.0,GENERATED VIA SPACE-TRACK.ORG API,2026-05-27T18:02:45,18 SPCS,COSMOS 2584(GLONASS),2025-042A,EARTH,TEME,UTC,SGP4,2026-05-27 00:34:04.274976+00:00,2.13103850,0.00059670,65.0730,73.5210,231.3051,128.6297,0,U,63130,999,959,0.00000000000000,-0.00000058,0.0000000000000,25507.877,675.727,19144.962,19114.521,PAYLOAD,LARGE,CIS,2025-03-02,PKMTR,,5216400,325309405,0 COSMOS 2584(GLONASS),1 63130U 25042A   26147.02366059 -.00000058  00000-0  00000-0 0  9991,2 63130  65.0730  73.5210 0005967 231.3051 128.6297  2.13103850  9597,63130
3.0,GENERATED VIA SPACE-TRACK.ORG API,2026-05-28T10:52:39,18 SPCS,COSMOS 2584(GLONASS),2025-042A,EARTH,TEME,UTC,SGP4,2026-05-27 23:05:31.886304+00:00,2.13103882,0.00059416,65.0735,73.4891,230.9789,128.9565,0,U,63130,999,961,0.00000000000000,-0.00000061,0.0000000000000,25507.874,675.727,19144.895,19114.583,PAYLOAD,LARGE,CIS,2025-03-02,PKMTR,,5218154,325538765,0 COSMOS 2584(GLONASS),1 63130U 25042A   26147.96217461 -.00000061  00000-0  00000-0 0  9990,2 63130  65.0735  73.4891 0005942 230.9789 128.9565  2.13103882  9611,63130
3.0,GENERATED VIA SPACE-TRACK.ORG API,2026-05-29T17:54:44,18 SPCS,COSMOS 2584(GLONASS),2025-042A,EARTH,TEME,UTC,SGP4,2026-05-29 08:52:43.381056+00:00,2.13103952,0.00059579,65.0743,73.4413,230.8866,129.0514,0,U,63130,999,964,0.00000000000000,-0.00000058,0.0000000000000,25507.869,675.727,19144.931,19114.536,PAYLOAD,LARGE,CIS,2025-03-02,PKMTR,,5221432,325883958,0 COSMOS 2584(GLONASS),1 63130U 25042A   26149.36994654 -.00000058  00000-0  00000-0 0  9998,2 63130  65.0743  73.4413 0005958 230.8866 129.0514  2.13103952  9649,63130
3.0,GENERATED VIA SPACE-TRACK.ORG API,2026-05-31T06:06:41,18 SPCS,COSMOS 2584(GLONASS),2025-042A,EARTH,TEME,UTC,SGP4,2026-05-30 07:24:11.392416+00:00,2.13103952,0.00059405,65.0747,73.4094,230.6218,129.3199,0,U,63130,999,966,0.00000000000000,-0.00000052,0.0000000000000,25507.869,675.727,19144.887,19114.581,PAYLOAD,LARGE,CIS,2025-03-02,PKMTR,,5223946,326216769,0 COSMOS 2584(GLONASS),1 63130U 25042A   26150.30846519 -.00000052  00000-0  00000-0 0  9994,2 63130  65.0747  73.4094 0005940 230.6218 129.3199  2.13103952  9662,63130
3.0,GENERATED VIA SPACE-TRACK.ORG API,2026-06-01T10:22:25,18 SPCS,COSMOS 2584(GLONASS),2025-042A,EARTH,TEME,UTC,SGP4,2026-05-31 05:55:39.458208+00:00,2.13103967,0.00059206,65.0752,73.3776,230.3550,129.5914,0,U,63130,999,968,0.00000000000000,-0.00000044,0.0000000000000,25507.867,675.727,19144.835,19114.630,PAYLOAD,LARGE,CIS,2025-03-02,PKMTR,,5227124,326552176,0 COSMOS 2584(GLONASS),1 63130U 25042A   26151.24698447 -.00000044  00000-0  00000-0 0  9994,2 63130  65.0752  73.3776 0005921 230.3550 129.5914  2.13103967  9684,63130
3.0,GENERATED VIA SPACE-TRACK.ORG API,2026-06-05T08:16:34,18 SPCS,COSMOS 2584(GLONASS),2025-042A,EARTH,TEME,UTC,SGP4,2026-06-04 22:32:59.851104+00:00,2.13103948,0.00058310,65.0776,73.2182,229.2014,130.7692,0,U,63130,999,978,0.00000000000000,-0.00000009,0.0000000000000,25507.869,675.727,19144.608,19114.860,PAYLOAD,LARGE,CIS,2025-03-02,PKMTR,,5230907,327230702,0 COSMOS 2584(GLONASS),1 63130U 25042A   26155.93958161 -.00000009  00000-0  00000+0 0  9996,2 63130  65.0776  73.2182 0005831 229.2014 130.7692  2.13103948  9789,63130
3.0,GENERATED VIA SPACE-TRACK.ORG API,2026-06-05T11:08:39,18 SPCS,COSMOS 2584(GLONASS),2025-042A,EARTH,TEME,UTC,SGP4,2026-06-04 22:32:59.851968+00:00,2.13103948,0.00058312,65.0776,73.2182,229.2014,130.7692,0,U,63130,999,978,0.00000000000000,-0.00000009,0.0000000000000,25507.869,675.727,19144.608,19114.860,PAYLOAD,LARGE,CIS,2025-03-02,PKMTR,,5231022,327269424,0 COSMOS 2584(GLONASS),1 63130U 25042A   26155.93958162 -.00000009  00000-0  00000-0 0  9998,2 63130  65.0776  73.2182 0005831 229.2014 130.7692  2.13103948  9789,63130
3.0,GENERATED VIA SPACE-TRACK.ORG API,2026-06-08T00:36:35,18 SPCS,COSMOS 2584(GLONASS),2025-042A,EARTH,TEME,UTC,SGP4,2026-06-07 06:51:38.494080+00:00,2.13103973,0.00059050,65.0788,73.1386,230.6055,129.3655,0,U,63130,999,983,0.00000000000000,-0.00000011,0.0000000000000,25507.867,675.726,19144.794,19114.670,PAYLOAD,LARGE,CIS,2025-03-02,PKMTR,,5236168,327929413,0 COSMOS 2584(GLONASS),1 63130U 25042A   26158.28586220 -.00000011  00000-0  00000+0 0  9993,2 63130  65.0788  73.1386 0005905 230.6055 129.3655  2.13103973  9837,63130
3.0,GENERATED VIA SPACE-TRACK.ORG API,2026-06-08T10:56:51,18 SPCS,COSMOS 2584(GLONASS),2025-042A,EARTH,TEME,UTC,SGP4,2026-06-07 18:07:22.526976+00:00,2.13103915,0.00058542,65.0790,73.1226,229.2892,130.6828,0,U,63130,999,984,0.00000000000000,-0.00000013,0.0000000000000,25507.872,675.727,19144.669,19114.804,PAYLOAD,LARGE,CIS,2025-03-02,PKMTR,,5237053,328039599,0 COSMOS 2584(GLONASS),1 63130U 25042A   26158.75512184 -.00000013  00000-0  00000-0 0  9996,2 63130  65.0790  73.1226 0005854 229.2892 130.6828  2.13103915  9843,63130
3.0,GENERATED VIA SPACE-TRACK.ORG API,2026-06-08T17:06:40,18 SPCS,COSMOS 2584(GLONASS),2025-042A,EARTH,TEME,UTC,SGP4,2026-06-08 05:23:06.412128+00:00,2.13103875,0.00058280,65.0792,73.1067,228.4476,131.5246,0,U,63130,999,985,0.00000000000000,-0.00000015,0.0000000000000,25507.875,675.727,19144.606,19114.874,PAYLOAD,LARGE,CIS,2025-03-02,PKMTR,,5237682,328104007,0 COSMOS 2584(GLONASS),1 63130U 25042A   26159.22437977 -.00000015  00000-0  00000+0 0  9996,2 63130  65.0792  73.1067 0005828 228.4476 131.5246  2.13103875  9858,63130
3.0,GENERATED VIA SPACE-TRACK.ORG API,2026-06-09T02:58:40,18 SPCS,COSMOS 2584(GLONASS),2025-042A,EARTH,TEME,UTC,SGP4,2026-06-08 05:23:06.412992+00:00,2.13103875,0.00058283,65.0792,73.1067,228.4476,131.5246,0,U,63130,999,985,0.00000000000000,-0.00000015,0.0000000000000,25507.875,675.727,19144.607,19114.873,PAYLOAD,LARGE,CIS,2025-03-02,PKMTR,,5238447,328203467,0 COSMOS 2584(GLONASS),1 63130U 25042A   26159.22437978 -.00000015  00000-0  00000-0 0  9998,2 63130  65.0792  73.1067 0005828 228.4476 131.5246  2.13103875  9858,63130
3.0,GENERATED VIA SPACE-TRACK.ORG API,2026-06-16T17:35:04,18 SPCS,COSMOS 2584(GLONASS),2025-042A,EARTH,TEME,UTC,SGP4,2026-06-16 04:50:31.942176+00:00,2.13103849,0.00057452,65.0842,72.8354,226.1824,133.8028,0,U,63130,999,1002,0.00000000000000,-0.00000022,0.0000000000000,25507.877,675.727,19144.397,19115.087,PAYLOAD,LARGE,CIS,2025-03-02,PKMTR,,5250820,330014812,0 COSMOS 2584(GLONASS),1 63130U 25042A   26167.20175859 -.00000022  00000-0  00000-0 0  9990,2 63130  65.0842  72.8354 0005745 226.1824 133.8028  2.13103849 10024,63130
3.0,GENERATED VIA SPACE-TRACK.ORG API,2026-06-20T10:42:50,18 SPCS,COSMOS 2584(GLONASS),2025-042A,EARTH,TEME,UTC,SGP4,2026-06-19 22:56:24.809280+00:00,2.13103910,0.00051351,65.0856,72.7078,219.8892,140.1108,0,U,63130,999,1010,0.00000000000000,-0.00000037,0.0000000000000,25507.872,675.727,19142.836,19116.638,PAYLOAD,LARGE,CIS,2025-03-02,PKMTR,,5256487,330848613,0 COSMOS 2584(GLONASS),1 63130U 25042A   26170.95584270 -.00000037  00000-0  00000-0 0  9993,2 63130  65.0856  72.7078 0005135 219.8892 140.1108  2.13103910 10106,63130
3.0,GENERATED VIA SPACE-TRACK.ORG API,2026-06-24T02:28:56,18 SPCS,COSMOS 2584(GLONASS),2025-042A,EARTH,TEME,UTC,SGP4,2026-06-23 05:46:26.241600+00:00,2.13103825,0.00065986,65.0880,72.5961,228.8314,131.1446,0,U,63130,999,1017,0.00000000000000,-0.00000067,0.0000000000000,25507.879,675.727,19146.576,19112.912,PAYLOAD,LARGE,CIS,2025-03-02,PKMTR,,5257684,331043522,0 COSMOS 2584(GLONASS),1 63130U 25042A   26174.24058150 -.00000067  00000-0  00000-0 0  9995,2 63130  65.0880  72.5961 0006599 228.8314 131.1446  2.13103825 10173,63130
